SL-4 R/B                
1 39679U 14021B   26054.27743669  .00016793  00000+0  37481-3 0  9994
2 39679  51.6066  47.5590 0098646  50.4453 310.5194 15.38646218654051
ALOS-2                  
1 39766U 14029A   26054.51599402  .00002592  00000+0  35381-3 0  9999
2 39766  97.9200 153.3179 0001654  99.3323 260.8076 14.79482596634775
YAOGAN-29               
1 41038U 15069A   26054.55777116  .00000332  00000+0  47499-4 0  9997
2 41038  98.0158  82.9480 0002557  59.8328 300.3138 14.82976528553782
ASTRO-H (HITOMI)        
1 41337U 16012A   26054.35537102  .00003412  00000+0  19963-3 0  9991
2 41337  30.9993  89.0409 0009909 188.8309 171.2156 15.09890080550066
HXMT (HUIYAN)           
1 42758U 17034A   26054.49316225  .00005258  00000+0  26790-3 0  9996
2 42758  43.0137  95.5871 0031102 146.7909 213.4898 15.17264554480382
CZ-2C R/B               
1 43521U 18054D   26054.32792370  .01094081  75723-3  85934-3 0  9995
2 43521  35.1265  39.1552 0010923 178.7094 181.3680 16.13617289426592
SAOCOM 1A               
1 43641U 18076A   26054.51579758  .00000231  00000+0  35619-4 0  9997
2 43641  97.8880 242.8885 0001293  78.5235 281.6123 14.82150603399264
H-2A R/B                
1 43682U 18084L   26054.31756666  .00024215  00000+0  58806-3 0  9994
2 43682  98.8749 268.6411 0026268  73.6445 286.7682 15.40668803403569
SAOCOM 1B               
1 46265U 20059A   26054.47953153  .00000888  00000+0  11804-3 0  9993
2 46265  97.8878 241.9506 0001449  84.3455 275.7924 14.82156210296649
CSS (TIANHE)            
1 48274U 21035A   26054.12217352  .00019262  00000+0  23480-3 0  9995
2 48274  41.4667 296.7550 0005303 176.3484 183.7394 15.60017570275330
COSMOS 2550             
1 48865U 21056A   26052.86751211 -.00000189  00000+0  98957-7 0  9994
2 48865  67.1417  88.7921 0008383 269.2454  90.7739 15.33831385261035
CZ-2C R/B               
1 52794U 22058K   26054.36292910  .00041049  00000+0  62174-3 0  9993
2 52794  50.1894  31.9240 0042100 139.8013 220.6083 15.53163267207905
