CCSDS_OMM_VERS = 2.0
CREATION_DATE  = 
ORIGINATOR     = 

OBJECT_NAME    = SL-4 R/B
OBJECT_ID      = 2014-021B
CENTER_NAME    = EARTH
REF_FRAME      = TEME
TIME_SYSTEM    = UTC
MEAN_ELEMENT_THEORY = SGP/SGP4

EPOCH          = 2026-02-23T06:39:30.530016
MEAN_MOTION    = 15.38646218
ECCENTRICITY   = .0098646
INCLINATION    = 51.6066
RA_OF_ASC_NODE = 47.5590
ARG_OF_PERICENTER = 50.4453
MEAN_ANOMALY   = 310.5194

EPHEMERIS_TYPE = 0
CLASSIFICATION_TYPE = U
NORAD_CAT_ID   = 39679
ELEMENT_SET_NO = 999
REV_AT_EPOCH   = 65405
BSTAR          = .37481E-3
MEAN_MOTION_DOT = .16793E-3
MEAN_MOTION_DDOT = 0

CCSDS_OMM_VERS = 2.0
CREATION_DATE  = 
ORIGINATOR     = 

OBJECT_NAME    = ALOS-2
OBJECT_ID      = 2014-029A
CENTER_NAME    = EARTH
REF_FRAME      = TEME
TIME_SYSTEM    = UTC
MEAN_ELEMENT_THEORY = SGP/SGP4

EPOCH          = 2026-02-23T12:23:01.883328
MEAN_MOTION    = 14.79482596
ECCENTRICITY   = .0001654
INCLINATION    = 97.9200
RA_OF_ASC_NODE = 153.3179
ARG_OF_PERICENTER = 99.3323
MEAN_ANOMALY   = 260.8076

EPHEMERIS_TYPE = 0
CLASSIFICATION_TYPE = U
NORAD_CAT_ID   = 39766
ELEMENT_SET_NO = 999
REV_AT_EPOCH   = 63477
BSTAR          = .35381E-3
MEAN_MOTION_DOT = .2592E-4
MEAN_MOTION_DDOT = 0

CCSDS_OMM_VERS = 2.0
CREATION_DATE  = 
ORIGINATOR     = 

OBJECT_NAME    = YAOGAN-29
OBJECT_ID      = 2015-069A
CENTER_NAME    = EARTH
REF_FRAME      = TEME
TIME_SYSTEM    = UTC
MEAN_ELEMENT_THEORY = SGP/SGP4

EPOCH          = 2026-02-23T13:23:11.428224
MEAN_MOTION    = 14.82976528
ECCENTRICITY   = .0002557
INCLINATION    = 98.0158
RA_OF_ASC_NODE = 82.9480
ARG_OF_PERICENTER = 59.8328
MEAN_ANOMALY   = 300.3138

EPHEMERIS_TYPE = 0
CLASSIFICATION_TYPE = U
NORAD_CAT_ID   = 41038
ELEMENT_SET_NO = 999
REV_AT_EPOCH   = 55378
BSTAR          = .47499E-4
MEAN_MOTION_DOT = .332E-5
MEAN_MOTION_DDOT = 0

CCSDS_OMM_VERS = 2.0
CREATION_DATE  = 
ORIGINATOR     = 

OBJECT_NAME    = ASTRO-H (HITOMI)
OBJECT_ID      = 2016-012A
CENTER_NAME    = EARTH
REF_FRAME      = TEME
TIME_SYSTEM    = UTC
MEAN_ELEMENT_THEORY = SGP/SGP4

EPOCH          = 2026-02-23T08:31:44.056128
MEAN_MOTION    = 15.09890080
ECCENTRICITY   = .0009909
INCLINATION    = 30.9993
RA_OF_ASC_NODE = 89.0409
ARG_OF_PERICENTER = 188.8309
MEAN_ANOMALY   = 171.2156

EPHEMERIS_TYPE = 0
CLASSIFICATION_TYPE = U
NORAD_CAT_ID   = 41337
ELEMENT_SET_NO = 999
REV_AT_EPOCH   = 55006
BSTAR          = .19963E-3
MEAN_MOTION_DOT = .3412E-4
MEAN_MOTION_DDOT = 0

CCSDS_OMM_VERS = 2.0
CREATION_DATE  = 
ORIGINATOR     = 

OBJECT_NAME    = HXMT (HUIYAN)
OBJECT_ID      = 2017-034A
CENTER_NAME    = EARTH
REF_FRAME      = TEME
TIME_SYSTEM    = UTC
MEAN_ELEMENT_THEORY = SGP/SGP4

EPOCH          = 2026-02-23T11:50:09.218400
MEAN_MOTION    = 15.17264554
ECCENTRICITY   = .0031102
INCLINATION    = 43.0137
RA_OF_ASC_NODE = 95.5871
ARG_OF_PERICENTER = 146.7909
MEAN_ANOMALY   = 213.4898

EPHEMERIS_TYPE = 0
CLASSIFICATION_TYPE = U
NORAD_CAT_ID   = 42758
ELEMENT_SET_NO = 999
REV_AT_EPOCH   = 48038
BSTAR          = .2679E-3
MEAN_MOTION_DOT = .5258E-4
MEAN_MOTION_DDOT = 0

CCSDS_OMM_VERS = 2.0
CREATION_DATE  = 
ORIGINATOR     = 

OBJECT_NAME    = CZ-2C R/B
OBJECT_ID      = 2018-054D
CENTER_NAME    = EARTH
REF_FRAME      = TEME
TIME_SYSTEM    = UTC
MEAN_ELEMENT_THEORY = SGP/SGP4

EPOCH          = 2026-02-23T07:52:12.607680
MEAN_MOTION    = 16.13617289
ECCENTRICITY   = .0010923
INCLINATION    = 35.1265
RA_OF_ASC_NODE = 39.1552
ARG_OF_PERICENTER = 178.7094
MEAN_ANOMALY   = 181.3680

EPHEMERIS_TYPE = 0
CLASSIFICATION_TYPE = U
NORAD_CAT_ID   = 43521
ELEMENT_SET_NO = 999
REV_AT_EPOCH   = 42659
BSTAR          = .85934E-3
MEAN_MOTION_DOT = .1094081E-1
MEAN_MOTION_DDOT = .75723E-3

CCSDS_OMM_VERS = 2.0
CREATION_DATE  = 
ORIGINATOR     = 

OBJECT_NAME    = SAOCOM 1A
OBJECT_ID      = 2018-076A
CENTER_NAME    = EARTH
REF_FRAME      = TEME
TIME_SYSTEM    = UTC
MEAN_ELEMENT_THEORY = SGP/SGP4

EPOCH          = 2026-02-23T12:22:44.910912
MEAN_MOTION    = 14.82150603
ECCENTRICITY   = .0001293
INCLINATION    = 97.8880
RA_OF_ASC_NODE = 242.8885
ARG_OF_PERICENTER = 78.5235
MEAN_ANOMALY   = 281.6123

EPHEMERIS_TYPE = 0
CLASSIFICATION_TYPE = U
NORAD_CAT_ID   = 43641
ELEMENT_SET_NO = 999
REV_AT_EPOCH   = 39926
BSTAR          = .35619E-4
MEAN_MOTION_DOT = .231E-5
MEAN_MOTION_DDOT = 0

CCSDS_OMM_VERS = 2.0
CREATION_DATE  = 
ORIGINATOR     = 

OBJECT_NAME    = H-2A R/B
OBJECT_ID      = 2018-084L
CENTER_NAME    = EARTH
REF_FRAME      = TEME
TIME_SYSTEM    = UTC
MEAN_ELEMENT_THEORY = SGP/SGP4

EPOCH          = 2026-02-23T07:37:17.759424
MEAN_MOTION    = 15.40668803
ECCENTRICITY   = .0026268
INCLINATION    = 98.8749
RA_OF_ASC_NODE = 268.6411
ARG_OF_PERICENTER = 73.6445
MEAN_ANOMALY   = 286.7682

EPHEMERIS_TYPE = 0
CLASSIFICATION_TYPE = U
NORAD_CAT_ID   = 43682
ELEMENT_SET_NO = 999
REV_AT_EPOCH   = 40356
BSTAR          = .58806E-3
MEAN_MOTION_DOT = .24215E-3
MEAN_MOTION_DDOT = 0

CCSDS_OMM_VERS = 2.0
CREATION_DATE  = 
ORIGINATOR     = 

OBJECT_NAME    = SAOCOM 1B
OBJECT_ID      = 2020-059A
CENTER_NAME    = EARTH
REF_FRAME      = TEME
TIME_SYSTEM    = UTC
MEAN_ELEMENT_THEORY = SGP/SGP4

EPOCH          = 2026-02-23T11:30:31.524192
MEAN_MOTION    = 14.82156210
ECCENTRICITY   = .0001449
INCLINATION    = 97.8878
RA_OF_ASC_NODE = 241.9506
ARG_OF_PERICENTER = 84.3455
MEAN_ANOMALY   = 275.7924

EPHEMERIS_TYPE = 0
CLASSIFICATION_TYPE = U
NORAD_CAT_ID   = 46265
ELEMENT_SET_NO = 999
REV_AT_EPOCH   = 29664
BSTAR          = .11804E-3
MEAN_MOTION_DOT = .888E-5
MEAN_MOTION_DDOT = 0

CCSDS_OMM_VERS = 2.0
CREATION_DATE  = 
ORIGINATOR     = 

OBJECT_NAME    = CSS (TIANHE)
OBJECT_ID      = 2021-035A
CENTER_NAME    = EARTH
REF_FRAME      = TEME
TIME_SYSTEM    = UTC
MEAN_ELEMENT_THEORY = SGP/SGP4

EPOCH          = 2026-02-23T02:55:55.792128
MEAN_MOTION    = 15.60017570
ECCENTRICITY   = .0005303
INCLINATION    = 41.4667
RA_OF_ASC_NODE = 296.7550
ARG_OF_PERICENTER = 176.3484
MEAN_ANOMALY   = 183.7394

EPHEMERIS_TYPE = 0
CLASSIFICATION_TYPE = U
NORAD_CAT_ID   = 48274
ELEMENT_SET_NO = 999
REV_AT_EPOCH   = 27533
BSTAR          = .2348E-3
MEAN_MOTION_DOT = .19262E-3
MEAN_MOTION_DDOT = 0

CCSDS_OMM_VERS = 2.0
CREATION_DATE  = 
ORIGINATOR     = 

OBJECT_NAME    = COSMOS 2550
OBJECT_ID      = 2021-056A
CENTER_NAME    = EARTH
REF_FRAME      = TEME
TIME_SYSTEM    = UTC
MEAN_ELEMENT_THEORY = SGP/SGP4

EPOCH          = 2026-02-21T20:49:13.046304
MEAN_MOTION    = 15.33831385
ECCENTRICITY   = .0008383
INCLINATION    = 67.1417
RA_OF_ASC_NODE = 88.7921
ARG_OF_PERICENTER = 269.2454
MEAN_ANOMALY   = 90.7739

EPHEMERIS_TYPE = 0
CLASSIFICATION_TYPE = U
NORAD_CAT_ID   = 48865
ELEMENT_SET_NO = 999
REV_AT_EPOCH   = 26103
BSTAR          = .98957E-7
MEAN_MOTION_DOT = -.189E-5
MEAN_MOTION_DDOT = 0

CCSDS_OMM_VERS = 2.0
CREATION_DATE  = 
ORIGINATOR     = 

OBJECT_NAME    = CZ-2C R/B
OBJECT_ID      = 2022-058K
CENTER_NAME    = EARTH
REF_FRAME      = TEME
TIME_SYSTEM    = UTC
MEAN_ELEMENT_THEORY = SGP/SGP4

EPOCH          = 2026-02-23T08:42:37.074240
MEAN_MOTION    = 15.53163267
ECCENTRICITY   = .00421
INCLINATION    = 50.1894
RA_OF_ASC_NODE = 31.9240
ARG_OF_PERICENTER = 139.8013
MEAN_ANOMALY   = 220.6083

EPHEMERIS_TYPE = 0
CLASSIFICATION_TYPE = U
NORAD_CAT_ID   = 52794
ELEMENT_SET_NO = 999
REV_AT_EPOCH   = 20790
BSTAR          = .62174E-3
MEAN_MOTION_DOT = .41049E-3
MEAN_MOTION_DDOT = 0

